*******************************************************************************
JPL/HORIZONS               2146 Stentor (1976 UQ)          2023-Sep-04 11:16:15
Rec #:    2146 (+COV) Soln.date: 2023-Aug-22_17:04:50   # obs: 3990 (1976-2023)
 
IAU76/J2000 helio. ecliptic osc. elements (au, days, deg., period=Julian yrs):
 
  EPOCH=  2457755.5 ! 2017-Jan-02.00 (TDB)         Residual RMS= .25992
   EC= .1009269930367011   QR= 4.671068831823772   TP= 2459664.71474142
   OM= 131.3241618390879   W=  273.3962961413778   IN= 39.25897674317164
   A= 5.195427730169246    MA= 201.0989046944001   ADIST= 5.719786628514721
   PER= 11.84241           N= .08322850800000001   ANGMOM= .039009361
   DAN= 5.11194            DDN= 5.17344            L= 45.7070536
   B= -39.1767797          MOID= 3.92557001        TP= 2022-Mar-26.2147414200
 
Asteroid physical parameters (km, seconds, rotational period in hours):
   GM= n.a.                RAD= 25.3775            ROTPER= 16.4
   H= 9.98                 G= .150                 B-V= n.a.
                           ALBEDO= .082            STYP= n.a.

ASTEROID comments: 
1: soln ref.= JPL#56, OCC=0
2: source=ORB
*******************************************************************************


*******************************************************************************
Ephemeris / API_USER Mon Sep  4 11:16:15 2023 Pasadena, USA      / Horizons
*******************************************************************************
Target body name: 2146 Stentor (1976 UQ)          {source: JPL#56}
Center body name: Solar System Barycenter (0)     {source: DE441}
Center-site name: BODY CENTER
*******************************************************************************
Start time      : A.D. 2023-Aug-12 00:00:00.0000 TDB
Stop  time      : A.D. 2023-Aug-13 00:00:00.0000 TDB
Step-size       : 2880 minutes
*******************************************************************************
Center geodetic : 0.0, 0.0, 0.0                   {E-lon(deg),Lat(deg),Alt(km)}
Center cylindric: 0.0, 0.0, 0.0                   {E-lon(deg),Dxy(km),Dz(km)}
Center radii    : (undefined)
Small perturbers: Yes                             {source: SB441-N16}
Output units    : KM-S
Calendar mode   : Mixed Julian/Gregorian
Output type     : GEOMETRIC cartesian states
Output format   : 2 (position and velocity)
Reference frame : Ecliptic of J2000.0
*******************************************************************************
Initial IAU76/J2000 heliocentric ecliptic osculating elements (au, days, deg.):
  EPOCH=  2457755.5 ! 2017-Jan-02.00 (TDB)         Residual RMS= .25992        
   EC= .1009269930367011   QR= 4.671068831823772   TP= 2459664.71474142        
   OM= 131.3241618390879   W=  273.3962961413778   IN= 39.25897674317164       
  Equivalent ICRF heliocentric cartesian coordinates (au, au/d):
   X=-1.761074924825709E+00  Y=-5.225913857967557E+00  Z= 1.404166156322755E+00
  VX= 5.716788272266543E-03 VY=-2.453546906002041E-03 VZ=-2.888254450723974E-03
Asteroid physical parameters (km, seconds, rotational period in hours):        
   GM= n.a.                RAD= 25.3775            ROTPER= 16.4                
   H= 9.98                 G= .150                 B-V= n.a.                   
                           ALBEDO= .082            STYP= n.a.                  
*******************************************************************************
JDTDB
   X     Y     Z
   VX    VY    VZ
*******************************************************************************
$$SOE
2460168.500000000 = A.D. 2023-Aug-12 00:00:00.0000 TDB 
 X =-1.437276846473983E+08 Y = 6.542933889360300E+08 Z =-2.660380532583135E+08
 VX=-1.220779014400947E+01 VY= 1.232360854663399E+00 VZ= 6.828899980781674E+00
$$EOE
*******************************************************************************
 
TIME

  Barycentric Dynamical Time ("TDB" or T_eph) output was requested. This
continuous coordinate time is equivalent to the relativistic proper time
of a clock at rest in a reference frame co-moving with the solar system
barycenter but outside the system's gravity well. It is the independent
variable in the solar system relativistic equations of motion.

  TDB runs at a uniform rate of one SI second per second and is independent
of irregularities in Earth's rotation.
 
CALENDAR SYSTEM

  Mixed calendar mode was active such that calendar dates after AD 1582-Oct-15
(if any) are in the modern Gregorian system. Dates prior to 1582-Oct-5 (if any)
are in the Julian calendar system, which is automatically extended for dates
prior to its adoption on 45-Jan-1 BC.  The Julian calendar is useful for
matching historical dates. The Gregorian calendar more accurately corresponds
to the Earth's orbital motion and seasons. A "Gregorian-only" calendar mode is
available if such physical events are the primary interest.

REFERENCE FRAME AND COORDINATES

  Ecliptic at the standard reference epoch

    Reference epoch: J2000.0
    X-Y plane: adopted Earth orbital plane at the reference epoch
               Note: IAU76 obliquity of 84381.448 arcseconds wrt ICRF X-Y plane
    X-axis   : ICRF
    Z-axis   : perpendicular to the X-Y plane in the directional (+ or -) sense
               of Earth's north pole at the reference epoch.

  Symbol meaning:

    JDTDB    Julian Day Number, Barycentric Dynamical Time
      X      X-component of position vector (km)
      Y      Y-component of position vector (km)
      Z      Z-component of position vector (km)
      VX     X-component of velocity vector (km/sec)                           
      VY     Y-component of velocity vector (km/sec)                           
      VZ     Z-component of velocity vector (km/sec)                           

ABERRATIONS AND CORRECTIONS

 Geometric state vectors have NO corrections or aberrations applied.

Computations by ...

    Solar System Dynamics Group, Horizons On-Line Ephemeris System
    4800 Oak Grove Drive, Jet Propulsion Laboratory
    Pasadena, CA  91109   USA

    General site: https://ssd.jpl.nasa.gov/
    Mailing list: https://ssd.jpl.nasa.gov/email_list.html
    System news : https://ssd.jpl.nasa.gov/horizons/news.html
    User Guide  : https://ssd.jpl.nasa.gov/horizons/manual.html
    Connect     : browser        https://ssd.jpl.nasa.gov/horizons/app.html#/x
                  API            https://ssd-api.jpl.nasa.gov/doc/horizons.html
                  command-line   telnet ssd.jpl.nasa.gov 6775
                  e-mail/batch   https://ssd.jpl.nasa.gov/ftp/ssd/hrzn_batch.txt
                  scripts        https://ssd.jpl.nasa.gov/ftp/ssd/SCRIPTS
    Author      : Jon.D.Giorgini@jpl.nasa.gov
*******************************************************************************
